COSMOS 2058             
1 20465U 90010A   26068.44951663  .00005023  00000+0  29631-3 0  9990
2 20465  82.4670  47.6646 0009375 345.0233  15.0718 15.11318921942204
SL-14 R/B               
1 20466U 90010B   26068.55200486  .00000518  00000+0  59899-4 0  9997
2 20466  82.4987 267.5182 0018540 302.8580  57.0850 14.83568636928467
SL-14 R/B               
1 20511U 90018B   26068.50220682  .00000693  00000+0  83952-4 0  9992
2 20511  82.5202 223.2647 0017677  92.6107 267.7131 14.82144727922559
HST                     
1 20580U 90037B   26067.05050796  .00011037  00000+0  36739-3 0  9999
2 20580  28.4714  51.1800 0001797 110.1029 249.9760 15.29454135773065
SL-16 R/B               
1 20625U 90046B   26067.91957970 -.00000243  00000+0 -10051-3 0  9992
2 20625  70.9989 299.5324 0016235 300.6945  59.2577 14.15012682848282
COSMOS 2084             
1 20663U 90055A   26068.19064644  .00003266  00000+0  23828-3 0  9994
2 20663  62.7921 337.2804 0017129 189.8801 170.1965 15.05648060936246
SL-6 R/B(2)             
1 20666U 90055D   26067.97308636  .00002834  00000+0  21957-3 0  9995
2 20666  62.7824 256.2874 0024632 346.9013  13.1443 15.03590689938088
SL-8 R/B                
1 20775U 90078B   26068.50843162  .00017030  00000+0  50130-3 0  9998
2 20775  82.9004 251.4739 0362329  14.6106 346.5253 14.89052086809277
SL-8 R/B                
1 21088U 91006B   26068.40829653  .00000078  00000+0  63218-4 0  9992
2 21088  82.9466 170.2551 0023099  39.0836  31.3188 13.77494152764036
OKEAN-3                 
1 21397U 91039A   26068.21354824  .00004486  00000+0  31542-3 0  9994
2 21397  82.5189 337.3047 0013992 340.1382  19.9298 15.04799868864967
COSMOS 2151             
1 21422U 91042A   26068.54993895  .00001872  00000+0  14779-3 0  9999
2 21422  82.4931  83.8110 0014000  64.3160 295.9508 15.00103431863177
SL-14 R/B               
1 21423U 91042B   26068.48763864  .00000660  00000+0  80500-4 0  9994
2 21423  82.4922 220.3717 0015771 239.3387 120.6273 14.81829386853040
